[{"OBJECT_NAME":"ICEYE-X7","OBJECT_ID":"2020-068L","EPOCH":"2026-03-09T22:52:28.702272","MEAN_MOTION":15.29152508,"ECCENTRICITY":0.00068409,"INCLINATION":97.7412,"RA_OF_ASC_NODE":31.2076,"ARG_OF_PERICENTER":332.3045,"MEAN_ANOMALY":27.7829,"EPHEMERIS_TYPE":0,"CLASSIFICATION_TYPE":"U","NORAD_CAT_ID":46496,"ELEMENT_SET_NO":999,"REV_AT_EPOCH":29961,"BSTAR":0.0005654802,"MEAN_MOTION_DOT":0.00015947,"MEAN_MOTION_DDOT":0},{"OBJECT_NAME":"STARLINK-35728","OBJECT_ID":"2025-265AE","EPOCH":"2026-03-09T22:28:28.725312","MEAN_MOTION":15.27567523,"ECCENTRICITY":8.01e-5,"INCLINATION":42.9973,"RA_OF_ASC_NODE":276.3177,"ARG_OF_PERICENTER":237.6519,"MEAN_ANOMALY":122.4255,"EPHEMERIS_TYPE":0,"CLASSIFICATION_TYPE":"U","NORAD_CAT_ID":66544,"ELEMENT_SET_NO":999,"REV_AT_EPOCH":1715,"BSTAR":0.0010536936,"MEAN_MOTION_DOT":0.00028836,"MEAN_MOTION_DDOT":0}]
